[{"OBJECT_NAME":"STARLINK-4261","OBJECT_ID":"2022-062AQ","EPOCH":"2026-03-09T06:16:41.616192","MEAN_MOTION":15.08834921,"ECCENTRICITY":0.0001356,"INCLINATION":53.2186,"RA_OF_ASC_NODE":26.0712,"ARG_OF_PERICENTER":90.3405,"MEAN_ANOMALY":269.7743,"EPHEMERIS_TYPE":0,"CLASSIFICATION_TYPE":"U","NORAD_CAT_ID":52868,"ELEMENT_SET_NO":999,"REV_AT_EPOCH":20586,"BSTAR":-3.9585537e-5,"MEAN_MOTION_DOT":-9.18e-6,"MEAN_MOTION_DDOT":0},{"OBJECT_NAME":"LEMUR-2-MARHISYAM","OBJECT_ID":"2024-149BW","EPOCH":"2026-03-09T17:46:07.876416","MEAN_MOTION":15.0901552,"ECCENTRICITY":0.00035778,"INCLINATION":97.6912,"RA_OF_ASC_NODE":151.2662,"ARG_OF_PERICENTER":107.3271,"MEAN_ANOMALY":252.8349,"EPHEMERIS_TYPE":0,"CLASSIFICATION_TYPE":"U","NORAD_CAT_ID":60536,"ELEMENT_SET_NO":999,"REV_AT_EPOCH":8547,"BSTAR":0.00082973442,"MEAN_MOTION_DOT":0.00013075,"MEAN_MOTION_DDOT":0}]
